[{"OBJECT_NAME":"STARLINK-30172","OBJECT_ID":"2023-102G","EPOCH":"2026-03-09T22:00:01.999584","MEAN_MOTION":15.15135247,"ECCENTRICITY":5.031e-5,"INCLINATION":42.9997,"RA_OF_ASC_NODE":246.8871,"ARG_OF_PERICENTER":241.8754,"MEAN_ANOMALY":320.5402,"EPHEMERIS_TYPE":0,"CLASSIFICATION_TYPE":"U","NORAD_CAT_ID":57410,"ELEMENT_SET_NO":999,"REV_AT_EPOCH":537,"BSTAR":0.0054662589,"MEAN_MOTION_DOT":0.00105633,"MEAN_MOTION_DDOT":0},{"OBJECT_NAME":"COSMOS 397 DEB","OBJECT_ID":"1971-015AP","EPOCH":"2026-03-09T23:21:39.504096","MEAN_MOTION":15.2848821,"ECCENTRICITY":0.00875373,"INCLINATION":65.5189,"RA_OF_ASC_NODE":36.1077,"ARG_OF_PERICENTER":68.9592,"MEAN_ANOMALY":292.0879,"EPHEMERIS_TYPE":0,"CLASSIFICATION_TYPE":"U","NORAD_CAT_ID":5192,"ELEMENT_SET_NO":999,"REV_AT_EPOCH":75637,"BSTAR":0.0038413279,"MEAN_MOTION_DOT":0.00121672,"MEAN_MOTION_DDOT":0}]
